[{"OBJECT_NAME":"STARLINK-34499","OBJECT_ID":"2025-142P","EPOCH":"2026-03-09T21:26:47.282784","MEAN_MOTION":14.98335104,"ECCENTRICITY":0.00027625,"INCLINATION":70.0016,"RA_OF_ASC_NODE":313.8245,"ARG_OF_PERICENTER":269.3887,"MEAN_ANOMALY":90.6956,"EPHEMERIS_TYPE":0,"CLASSIFICATION_TYPE":"U","NORAD_CAT_ID":64709,"ELEMENT_SET_NO":999,"REV_AT_EPOCH":3949,"BSTAR":0.00021482028,"MEAN_MOTION_DOT":2.471e-5,"MEAN_MOTION_DDOT":0},{"OBJECT_NAME":"UNKNOWN","OBJECT_ID":"","EPOCH":"2026-03-07T15:14:41.564256","MEAN_MOTION":13.5413212,"ECCENTRICITY":0.0691594,"INCLINATION":65.6692,"RA_OF_ASC_NODE":150.3342,"ARG_OF_PERICENTER":189.8468,"MEAN_ANOMALY":168.843,"EPHEMERIS_TYPE":0,"CLASSIFICATION_TYPE":"U","NORAD_CAT_ID":87553,"ELEMENT_SET_NO":999,"REV_AT_EPOCH":60274,"BSTAR":0.0016336,"MEAN_MOTION_DOT":5.279e-5,"MEAN_MOTION_DDOT":0}]
